GLOBALSTAR M063 [+]     
1 26081U 00008A   23257.46153203 -.00000063  00000+0  29454-3 0  9994
2 26081  51.9989   1.6071 0004940 159.0200 280.1470 11.86144253 81421
GLOBALSTAR M062 [-]     
1 26082U 00008B   23257.28297309  .00000061  00000+0  11420-2 0  9991
2 26082  51.9838 183.3475 0006427 177.6467 346.6901 12.43413699416767
GLOBALSTAR M060 [-]     
1 26083U 00008C   23257.45623438 -.00000144  00000+0 -52700-3 0  9998
2 26083  52.0033  52.0593 0002478 263.0299 130.8737 12.17616055 74194
GLOBALSTAR M064 [-]     
1 26084U 00008D   23257.03702659 -.00000044  00000+0  55362-3 0  9991
2 26084  52.0017 109.1268 0000708 284.8616  75.2138 11.88509660 90744
GLOBALSTAR M065 [+]     
1 31571U 07020A   23257.53358566 -.00000098  00000+0  30039-4 0  9992
2 31571  51.9922  19.1545 0009697 331.7611 108.6328 12.61952019752395
GLOBALSTAR M069 [+]     
1 31573U 07020C   23257.61037828 -.00000048  00000+0  30901-3 0  9990
2 31573  51.9974 335.1147 0000844 136.2746  14.6009 12.62280610753457
GLOBALSTAR M072 [+]     
1 31574U 07020D   23257.41607497 -.00000079  00000+0  13793-3 0  9998
2 31574  52.0083  71.3917 0001205  72.3552 294.4206 12.62265624751770
GLOBALSTAR M071 [P]     
1 31576U 07020F   23257.54718399 -.00000045  00000+0  32720-3 0  9992
2 31576  52.0095 340.2565 0001325 137.6187 325.3160 12.62267877414708
